#dP2020  1  6  0  0  0.00000000      96 __u+U ITR00 FIT  IAC
## 2087  86400.00000000   900.00000000 58854 0.0000000000000
+  115   C01C02C03C04C05C06C07C08C09C10C11C12C13C14C16C18C19
+        C20C21C22C23C24C25C26C27C28C29C30C32C33C34C35C36C37
+        E01E02E03E04E05E07E08E09E11E12E13E14E15E18E19E21E24
+        E25E26E27E30E31E33E36G01G02G03G04G05G06G07G08G09G10
+        G11G12G13G14G15G16G17G18G19G20G21G22G23G24G25G26G27
+        G28G29G30G31G32J01J02J03R01R02R03R04R05R07R08R09R11
+        R12R13R14R15R16R17R18R19R20R21R22R23R26  0  0  0  0
++        13 13 13 13 13  8  9  8  8  9  8  8  8  8  8 15  7
++         8  7  7  8  8  8  8  8  8  8  8  8  8  8  8  8  8
++         4  4  4  5  4  4  4  4  4  4  4  4  4  4  5  4  4
++         4  4  4  4  4  4  4  3  3  3  4  3  3  3  3  3  3
++         3  3  3  3  3  3  3  4  3  3  3  3  3  3  3  3  3
++         3  3  3  3  3  9  8  8  6  5  5  6  6  5  5  5  5
++         5  6  5  5  6  5  5  6  6  5  5  5  8  0  0  0  0
%c M  cc GPS ccc cccc cccc cccc cccc ccccc ccccc ccccc ccccc
%c cc cc ccc ccc cccc cccc cccc cccc ccccc ccccc ccccc ccccc
%f  0.0000000  0.000000000  0.00000000000  0.000000000000000
%f  0.0000000  0.000000000  0.00000000000  0.000000000000000
%i    0    0    0    0      0      0      0      0         0
%i    0    0    0    0      0      0      0      0         0
/* INFORMATION & ANALYSIS CENTER (IAC)            RAPID DATA
/* S/V CLOCKS ARE ALIGNED TO GNSS TIME                      
/* G:C1WC2W R:C1PC2P E:C1XC5X C:C2IC6I J:C1CC2S             
/* PCV:IGS14_2082 OL/AL:FES2004  NONE     YN ORB:CoN CLK:CoN
*  2020 01 06 11 15  0.00000000
PC01 -32262.954853  27146.537806    665.468365    348.473037
PC02   4394.734314  41905.871941  -1145.992562    628.712815
PC03 -14782.822212  39456.556770   -467.113108    411.883322
PC04 -39621.292688  14488.849554    269.337129   -430.913434
PC05  21892.530126  35976.804931  -1337.922863   -139.961529
PC06 -11085.502410  37450.526014 -15022.446541    266.783589
PC07 -12064.929488  23228.111659  33237.370268    117.400834
PC08 -24654.479700  28312.707541 -19425.860689    -75.605751
PC09  -2857.049178  41837.896043  -1193.646501    241.570261
PC10   4062.011675  28787.061826  30831.101989   -533.597592
PC11   9866.660361 -26030.718626  -1382.576788   -104.687187
PC12  16760.061501 -13433.026857 -17756.404422    307.364537
PC13 -11466.286676  29003.969747 -28407.470220    192.688753
PC14   2825.994118 -18449.691241  20752.672725    405.574410
PC16  -9393.822390  38594.561356 -13837.059498   -868.623382
PC18   7307.730085  41513.549586    851.682966     10.706911
PC19   6058.244384  22463.527425 -15397.672567    290.516044
PC20 -10521.883887  12059.552010 -22850.592909   -518.824127
PC21  21387.554998   5925.141121  16938.916792     44.239227
PC22  19384.726275  20060.740049   1146.509202   -633.266821
PC23 -17538.611545 -10276.532757 -19119.363352   -870.224742
PC24  21439.149295 -13104.085927 -12115.035648   -895.268853
PC25   1948.290583 -16640.219410 -22317.817137   -472.152318
PC26  27366.263126  -3091.775219   4385.294803    523.896734
PC27 -17069.437727   3140.733897  21839.107146    255.736104
PC28  -9197.946189 -16680.320978  20399.285833    246.714075
PC29  -3003.867181  26834.339450  -7043.595350    169.960434
PC30 -14265.028838  21440.552650  10730.667808    251.862143
PC32 -21425.190200  -5764.562746 -16915.115009   -854.978925
PC33  -6055.060734 -22422.603826  15460.461190   -752.381416
PC34  14203.510801 -21680.336808 -10370.392508   -369.237537
PC35   9733.694937  16468.253266 -20299.601827   -737.669568
PC36  -2585.850187  16616.176663  22293.262474   -853.620634
PC37 -27395.515634   2081.580430  -4929.449838   -929.553126
PE01 -23453.527967 -13344.726107 -12173.308802   -767.889674
PE02  23486.817917  13313.722177  12118.353782    103.858675
PE03  16107.378589  21591.577967  12276.294129   -252.047300
PE04 -18096.952676  -2127.752970 -23329.303702   -440.006028
PE05   4651.815393  28593.334518  -6086.901148   -416.428443
PE07   9448.794573 -18842.272014  20776.689039   -323.014240
PE08  17943.309086   1845.882781  23466.088996   6238.670655
PE09  -9145.315543  18948.022259 -20828.532262   6197.550440
PE11 -19665.563664  22114.576952     31.291209    675.255941
PE12 -22422.105500   7514.724853  17805.098556   6014.947913
PE13  19669.809641 -22118.768611   -234.855577    397.107574
PE14 -14160.639142  -5989.891779  17569.306039   -857.844532
PE15  22397.036635  -7900.700371 -17651.540805    881.785469
PE18  20326.818561   4958.710741 -25052.857707   -954.260182
PE19 -15237.927423 -23094.331918 -10527.283788     -2.086768
PE21  -4491.439827 -17085.016674 -23751.803878   -575.480089
PE24 -17380.564181  10786.833511  21395.296711   5677.386220
PE25   4361.066298  17079.487653  23785.096988   -500.416133
PE26   5237.233673 -23332.861823  17451.823523   3678.194916
PE27  17269.870515 -10860.076387 -21438.441028    309.442225
PE30  28816.663961   1924.538897  -6452.964663   4246.445261
PE31 -28817.675883  -1709.055420   6561.438962   -471.206725
PE33 -11985.617457 -10985.964087  24748.518291   -471.114791
PE36  -5417.769750  23375.979961 -17319.080111    614.827344
PG01  -7474.164768  18286.423246 -17796.107650   -253.670965
PG02  22055.900270 -14626.737051   -733.270867   -380.690583
PG03   4694.683442  17851.447943 -19189.260081    -66.897568
PG04   -782.233257  26534.047242   -485.388204    -30.441880
PG05  16393.884721  -7179.333523  19548.520710     -5.716620
PG06  23070.728907  -4003.147872 -12516.528921   -174.679744
PG07  10413.355894  11771.949547  21731.691680   -186.123257
PG08  -6599.326851  23311.895314  10637.875205    -19.293613
PG09   7101.517376  23946.473994   8956.774586   -126.111266
PG10 -24065.123964 -11195.383182  -2702.597674   -199.567020
PG11  -6785.288731  24173.539497  -9576.201655   -398.000926
PG12    365.664327 -16572.399433 -21014.969791    165.284477
PG13  12775.675846 -17040.345055  15696.058264    -21.803493
PG14 -15124.670508   2989.355622 -21281.482523    -40.434585
PG15   4246.153933 -24167.300650   9360.249013   -260.519395
PG16 -17391.709326   4065.848875  19608.552908   -110.711135
PG17  13391.554428   9018.460775 -20675.948851    193.832691
PG18 -14219.196602  19422.115508 -11626.957401    111.635375
PG19  14900.634705    359.241523 -22276.462651   -216.236046
PG20 -20663.316382 -14722.217913   8104.323414    527.756958
PG21 -12898.105344  -9945.809185  21745.700956    -59.793572
PG22  -3653.474698  15561.902020 -21000.768453   -780.905468
PG23   1745.696265  26281.865913   1049.542677   -144.872588
PG24   8433.652236 -19652.474430 -15704.996808     -7.219856
PG25 -13469.818623 -18517.719690 -13905.262968    -16.528431
PG26 -23193.092400  -1496.332946  13026.812264    121.517694
PG27 -12271.341303  14159.454301  18575.532809   -172.946012
PG28  22850.278217  12720.962398  -3591.962762    746.774152
PG29  -4757.367551 -24472.333768   9102.273829     -0.525037
PG30  19820.949177   3669.561116  17421.828635   -122.930891
PG31 -24209.221115   5403.446006 -10143.713321    -14.732250
PG32 -14742.053437  -7794.928153 -20639.793093    177.165003
PJ01 -21263.371564  20111.508581 -25771.896138   -325.959389
PJ02 -30468.030467  22886.552791  22805.121013     -0.633351
PJ03 -27657.147006  28295.227342  19466.580694    -11.924353
PR01 -16485.780589 -16296.453900 -10635.816803     55.223928
PR02 -11256.534234   2213.748118 -22755.320187    405.928909
PR03    227.599051  17365.452322 -18627.923785      7.751107
PR04  11591.197056  22373.804223  -3933.866886     34.489275
PR05  16207.988860  14750.222286  13037.456357     42.608545
PR07   -621.215754 -17766.981441  18340.080928    -31.656931
PR08 -11459.504731 -22441.267591   4065.026925     13.267786
PR09  22188.511763  -6054.439978 -11087.389960    109.998979
PR11 -10029.850609  -9971.465279 -21204.333463     14.109238
PR12 -23307.267348  -3888.979221  -9618.121496     94.459735
PR13 -23654.869067   4802.609656   8237.062613    -33.174752
PR14 -10097.358731  10329.828534  21032.746008     46.810980
PR15   9109.239697  10028.846733  21630.624723    105.626075
PR16  23449.387903   3383.901819   9261.355561     -0.826981
PR17 -11751.837711  22627.039729  -1265.944977    290.067136
PR18  -1882.366016  19081.050447 -16772.390235     20.587423
PR19   8636.366177   5841.089494 -23272.021265    -72.644037
PR20  15570.545649 -12860.799108 -15595.471228   -400.798440
PR21  11383.094029 -22709.461099   2164.465003    -96.481683
PR22    100.528318 -17411.989385  18705.090171     -8.630102
PR23 -11891.902039    520.518272  22560.415753    278.017301
PR26  14803.149915  -9663.475180 -18358.465881   -413.095428
EOF
